NORAD_CAT_ID,OBJECT_NAME,OBJECT_TYPE,EPOCH,MEAN_MOTION,ECCENTRICITY,INCLINATION,RA_OF_ASC_NODE,ARG_OF_PERICENTER,MEAN_ANOMALY,BSTAR,MEAN_MOTION_DOT,MEAN_MOTION_DDOT,TLE_LINE0,TLE_LINE1,TLE_LINE2,SEMIMAJOR_AXIS,PERIOD,APOGEE,PERIGEE,DECAYED
53736.0,STARLINK-4652,PAYLOAD,2024-05-13 23:43:44,15.08893499,0.000171,53.2179,358.2675,84.754,275.3647,0.0026587,0.00042342,0.0,0 STARLINK-4652,1 53736U 22107AN  24134.98870986  .00042342  00000-0  26587-2 0  9990,2 53736  53.2179 358.2675 0001710  84.7540 275.3647 15.08893499 93604,6917.717,95.434,540.765,538.399,0.0
53736.0,STARLINK-4652,PAYLOAD,2024-05-14 07:40:39,15.08892834,0.0002951,53.2176,356.7817,71.8829,288.2484,0.0026517,0.0004223,0.0,0 STARLINK-4652,1 53736U 22107AN  24135.31990560  .00042230  00000-0  26517-2 0  9998,2 53736  53.2176 356.7817 0002951  71.8829 288.2484 15.08892834 93656,6917.719,95.434,541.625,537.542,0.0
53736.0,STARLINK-4652,PAYLOAD,2024-05-14 21:59:07,15.08880424,0.0001495,53.2182,354.104,74.6755,285.4403,0.0022034,0.00034992,0.0,0 STARLINK-4652,1 53736U 22107AN  24135.91605339  .00034992  00000-0  22034-2 0  9997,2 53736  53.2182 354.1040 0001495  74.6755 285.4403 15.08880424 94376,6917.757,95.435,540.656,538.588,0.0
53736.0,STARLINK-4652,PAYLOAD,2024-05-14 23:34:30,15.08879089,0.0001483,53.2183,353.8071,76.0652,284.0505,0.002464,0.00039187,0.0,0 STARLINK-4652,1 53736U 22107AN  24135.98229285  .00039187  00000-0  24640-2 0  9992,2 53736  53.2183 353.8071 0001483  76.0652 284.0505 15.08879089 93750,6917.761,95.435,540.652,538.6,0.0
53736.0,STARLINK-4652,PAYLOAD,2024-05-15 07:31:25,15.08890222,0.0003202,53.2182,352.3204,67.4129,292.7201,0.0023799,0.00037846,0.0,0 STARLINK-4652,1 53736U 22107AN  24136.31349088  .00037846  00000-0  23799-2 0  9998,2 53736  53.2182 352.3204 0003202  67.4129 292.7201 15.08890222 93802,6917.727,95.434,541.807,537.377,0.0
53736.0,STARLINK-4652,PAYLOAD,2024-05-15 20:14:30,15.08830226,0.0001555,53.2188,349.9417,68.8262,291.2896,0.0010592,0.00016605,0.0,0 STARLINK-4652,1 53736U 22107AN  24136.84341362  .00016605  00000-0  10592-2 0  9990,2 53736  53.2188 349.9417 0001555  68.8262 291.2896 15.08830226 93888,6917.91,95.438,540.851,538.7,0.0
53736.0,STARLINK-4652,PAYLOAD,2024-05-15 21:49:54,15.08835127,0.000149,53.2178,349.6448,64.2331,295.8815,0.0014878,0.00023466,0.0,0 STARLINK-4652,1 53736U 22107AN  24136.90965354  .00023466  00000-0  14878-2 0  9994,2 53736  53.2178 349.6448 0001490  64.2331 295.8815 15.08835127 94521,6917.895,95.438,540.791,538.73,0.0
53736.0,STARLINK-4652,PAYLOAD,2024-05-16 07:22:12,15.08854105,0.0001476,53.2168,347.8626,68.4395,291.6754,0.0020432,0.00032392,0.0,0 STARLINK-4652,1 53736U 22107AN  24137.30709339  .00032392  00000-0  20432-2 0  9999,2 53736  53.2168 347.8626 0001476  68.4395 291.6754 15.08854105 93957,6917.837,95.437,540.723,538.681,0.0
53736.0,STARLINK-4652,PAYLOAD,2024-05-16 20:05:18,15.08844305,4.38e-05,53.2182,345.4804,92.5757,267.5285,0.0015818,0.00024979,0.0,0 STARLINK-4652,1 53736U 22107AN  24137.83701395  .00024979  00000-0  15818-2 0  9995,2 53736  53.2182 345.4804 0000438  92.5757 267.5285 15.08844305 94034,6917.867,95.437,540.035,539.429,0.0
53736.0,STARLINK-4652,PAYLOAD,2024-05-17 13:34:32,15.08853899,8.03e-05,53.2176,342.2089,258.3805,101.7097,0.0014665,0.00023137,0.0,0 STARLINK-4652,1 53736U 22107AN  24138.56565590  .00023137  00000-0  14665-2 0  9995,2 53736  53.2176 342.2089 0000803 258.3805 101.7097 15.08853899 94149,6917.838,95.437,540.258,539.147,0.0
53736.0,STARLINK-4652,PAYLOAD,2024-05-17 19:56:05,15.08846848,0.0005837,53.2189,341.0193,102.3197,257.8449,0.0012564,0.00019773,0.0,0 STARLINK-4652,1 53736U 22107AN  24138.83062147  .00019773  00000-0  12564-2 0  9992,2 53736  53.2189 341.0193 0005837 102.3197 257.8449 15.08846848 94184,6917.859,95.437,543.762,535.687,0.0
53736.0,STARLINK-4652,PAYLOAD,2024-05-18 06:00:00,15.08832707,0.0001194,53.2173,339.1401,87.468,31.9312,0.00097014,0.00015182,0.0,0 STARLINK-4652,1 53736U 22107AN  24139.25001157  .00015182  00000-0  97014-3 0  9997,2 53736  53.2173 339.1401 0001194  87.4680  31.9312 15.08832707 94245,6917.903,95.438,540.594,538.942,0.0
53736.0,STARLINK-4652,PAYLOAD,2024-05-18 08:00:01,15.08824971,0.0001156,53.2174,338.7656,88.5651,123.8062,0.0041894,0.00066993,0.0,0 STARLINK-4652,1 53736U 22107AN  24139.33335648  .00066993  00000-0  41894-2 0  9991,2 53736  53.2174 338.7656 0001156  88.5651 123.8062 15.08824971 94259,6917.926,95.439,540.591,538.992,0.0
53736.0,STARLINK-4652,PAYLOAD,2024-05-18 19:46:52,15.08866259,0.0001258,53.2186,336.5617,84.6614,275.4522,0.0011898,0.00018712,0.0,0 STARLINK-4652,1 53736U 22107AN  24139.82421542  .00018712  00000-0  11898-2 0  9991,2 53736  53.2186 336.5617 0001258  84.6614 275.4522 15.08866259 94333,6917.8,95.436,540.535,538.795,0.0
53736.0,STARLINK-4652,PAYLOAD,2024-05-19 13:16:06,15.08843539,6.37e-05,53.2192,333.2908,58.007,302.0984,0.00068477,0.00010628,0.0,0 STARLINK-4652,1 53736U 22107AN  24140.55285469  .00010628  00000-0  68477-3 0  9993,2 53736  53.2192 333.2908 0000637  58.0070 302.0984 15.08843539 95075,6917.87,95.437,540.175,539.294,0.0
53736.0,STARLINK-4652,PAYLOAD,2024-05-19 19:37:39,15.08804595,0.0001333,53.2193,332.1026,113.344,246.7692,0.00039039,5.925e-05,0.0,0 STARLINK-4652,1 53736U 22107AN  24140.81782182  .00005925  00000-0  39039-3 0  9992,2 53736  53.2193 332.1026 0001333 113.3440 246.7692 15.08804595 94488,6917.989,95.44,540.776,538.931,0.0
53736.0,STARLINK-4652,PAYLOAD,2024-05-20 13:06:55,15.08836419,0.0001126,53.2184,328.8297,118.7952,241.3153,0.001613,0.00025474,0.0,0 STARLINK-4652,1 53736U 22107AN  24141.54647175  .00025474  00000-0  16130-2 0  9992,2 53736  53.2184 328.8297 0001126 118.7952 241.3153 15.08836419 94592,6917.891,95.438,540.535,538.977,0.0
53736.0,STARLINK-4652,PAYLOAD,2024-05-21 06:00:00,15.08816198,8.57e-05,53.2173,325.6724,99.2229,124.5268,0.0013624,0.00021447,0.0,0 STARLINK-4652,1 53736U 22107AN  24142.25001157  .00021447  00000-0  13624-2 0  9996,2 53736  53.2173 325.6724 0000857  99.2229 124.5268 15.08816198 94692,6917.953,95.439,540.411,539.225,0.0
53736.0,STARLINK-4652,PAYLOAD,2024-05-21 14:00:01,15.08844081,9.05e-05,53.2174,324.1762,102.7138,132.5981,0.0011394,0.00017894,0.0,0 STARLINK-4652,1 53736U 22107AN  24142.58334491  .00017894  00000-0  11394-2 0  9995,2 53736  53.2174 324.1762 0000905 102.7138 132.5981 15.08844081  5754,6917.868,95.437,540.359,539.107,0.0
53736.0,STARLINK-4652,PAYLOAD,2024-05-21 22:00:00,15.08861012,8.63e-05,53.2171,322.6812,74.2563,172.6666,-0.0020403,-0.0003263,0.0,0 STARLINK-4652,1 53736U 22107AN  24142.91667824 -.00032630  00000-0 -20403-2 0  9999,2 53736  53.2171 322.6812 0000863  74.2563 172.6666 15.08861012  5802,6917.816,95.436,540.278,539.084,0.0
53736.0,STARLINK-4652,PAYLOAD,2024-05-22 00:00:00,15.08867405,8.31e-05,53.2167,322.3069,67.418,272.4133,-0.0036162,-0.00057422,0.0,0 STARLINK-4652,1 53736U 22107AN  24143.00001157 -.00057422  00000-0 -36162-2 0  9996,2 53736  53.2167 322.3069 0000831  67.4180 272.4133 15.08867405 94811,6917.797,95.436,540.236,539.087,0.0
53736.0,STARLINK-4652,PAYLOAD,2024-05-22 20:45:24,15.08849388,5.62e-05,53.2172,318.4173,79.8353,280.2703,0.00076845,0.00011966,0.0,0 STARLINK-4652,1 53736U 22107AN  24143.86486387  .00011966  00000-0  76845-3 0  9996,2 53736  53.2172 318.4173 0000562  79.8353 280.2703 15.08849388 94943,6917.852,95.437,540.105,539.328,0.0
53736.0,STARLINK-4652,PAYLOAD,2024-05-23 20:36:11,15.08839771,9.98e-05,53.2184,313.9582,75.664,284.4463,0.00015632,2.201e-05,0.0,0 STARLINK-4652,1 53736U 22107AN  24144.85846942  .00002201  00000-0  15632-3 0  9992,2 53736  53.2184 313.9582 0000998  75.6640 284.4463 15.08839771 95097,6917.881,95.438,540.436,539.056,0.0
53736.0,STARLINK-4652,PAYLOAD,2024-05-24 10:54:39,15.08844102,9.83e-05,53.2161,311.2863,78.3663,281.744,0.00025032,3.699e-05,0.0,0 STARLINK-4652,1 53736U 22107AN  24145.45462944  .00003699  00000-0  25032-3 0  9992,2 53736  53.2161 311.2863 0000983  78.3663 281.7440 15.08844102 95813,6917.868,95.437,540.413,539.053,0.0
53736.0,STARLINK-4652,PAYLOAD,2024-05-24 17:16:12,15.0884709,8.41e-05,53.2161,310.0969,79.8861,280.2226,0.00022565,3.306e-05,0.0,0 STARLINK-4652,1 53736U 22107AN  24145.71958772  .00003306  00000-0  22565-3 0  9993,2 53736  53.2161 310.0969 0000841  79.8861 280.2226 15.08847090 95855,6917.859,95.437,540.306,539.142,0.0
53736.0,STARLINK-4652,PAYLOAD,2024-05-25 17:06:59,15.08837029,7.38e-05,53.2169,305.6373,81.8125,278.2951,2.2399e-05,6.9e-07,0.0,0 STARLINK-4652,1 53736U 22107AN  24146.71319264  .00000069  00000-0  22399-4 0  9990,2 53736  53.2169 305.6373 0000738  81.8125 278.2951 15.08837029 95373,6917.889,95.438,540.265,539.244,0.0
53736.0,STARLINK-4652,PAYLOAD,2024-05-26 13:47:00,15.08838705,7.7e-05,53.2175,301.775,51.5603,308.5458,9.104e-05,1.161e-05,0.0,0 STARLINK-4652,1 53736U 22107AN  24147.57431502  .00001161  00000-0  91040-4 0  9998,2 53736  53.2175 301.7750 0000770  51.5603 308.5458 15.08838705 96133,6917.884,95.438,540.282,539.217,0.0
53736.0,STARLINK-4652,PAYLOAD,2024-05-26 20:08:32,15.088515,8.35e-05,53.2175,300.5829,71.7108,288.3975,0.00023647,3.479e-05,0.0,0 STARLINK-4652,1 53736U 22107AN  24147.83926695  .00003479  00000-0  23647-3 0  9990,2 53736  53.2175 300.5829 0000835  71.7108 288.3975 15.08851500 95544,6917.845,95.437,540.288,539.133,0.0
53736.0,STARLINK-4652,PAYLOAD,2024-05-27 13:37:47,15.08841918,7.04e-05,53.218,297.313,95.0228,265.0845,8.8227e-05,1.117e-05,0.0,0 STARLINK-4652,1 53736U 22107AN  24148.56791109  .00001117  00000-0  88227-4 0  9994,2 53736  53.2180 297.3130 0000704  95.0228 265.0845 15.08841918 95657,6917.875,95.437,540.227,539.253,0.0
53736.0,STARLINK-4652,PAYLOAD,2024-05-27 16:48:33,15.08840831,0.000102,53.2183,296.7148,120.6879,239.4214,0.0001858,2.671e-05,0.0,0 STARLINK-4652,1 53736U 22107AN  24148.70039108  .00002671  00000-0  18580-3 0  9994,2 53736  53.2183 296.7148 0001020 120.6879 239.4214 15.08840831 96302,6917.878,95.438,540.448,539.037,0.0
